STARLINK-3047
1 19174C 21082AW  21326.11566869 -.00035213  00000-0 -29509-3 0  3262
2 19174  69.9992 292.8731 0003562 286.3401  19.3806 15.69773944    16
